ORBCOMM FM103 [+]       
1 40091U 14040F   24013.84125381  .00001503  00000+0  37422-3 0  9994
2 40091  47.0074 311.3144 0001713  31.3027 328.7960 14.56207690505277
ORBCOMM FM114 [+]       
1 41179U 15081A   24012.98369574  .00001185  00000+0  30321-3 0  9993
2 41179  47.0015 224.6732 0001504 128.1718 231.9302 14.56196691428456
ORBCOMM FM119 [-]       
1 41180U 15081B   24013.43251017  .00001461  00000+0  36494-3 0  9992
2 41180  47.0006 131.7502 0001902 213.5161 146.5603 14.56194196429773
ORBCOMM FM105 [-]       
1 41181U 15081C   24013.31733777  .00000671  00000+0  23927-3 0  9997
2 41181  47.0023  88.4799 0001662 177.6776 182.4112 14.44180082425433
ORBCOMM FM110 [+]       
1 41182U 15081D   24013.02923273  .00000981  00000+0  25739-3 0  9995
2 41182  47.0005 223.8755 0001971 292.3274  67.7401 14.56190253428334
ORBCOMM FM118 [+]       
1 41183U 15081E   24013.69260869  .00000944  00000+0  24905-3 0  9997
2 41183  47.0024 221.0340 0002125 292.2009  67.8650 14.56195185428610
ORBCOMM FM112 [+]       
1 41184U 15081F   24013.41057125  .00001646  00000+0  40653-3 0  9995
2 41184  46.9985 131.0968 0001630 202.1921 157.8893 14.56180513429714
ORBCOMM FM113 [+]       
1 41185U 15081G   24013.45591024  .00001646  00000+0  40658-3 0  9996
2 41185  47.0005 131.1261 0001628 225.0894 134.9858 14.56177423429709
